[{"OBJECT_NAME":"STARLINK-3570","OBJECT_ID":"2022-022AG","EPOCH":"2026-03-09T04:32:45.429216","MEAN_MOTION":15.08832143,"ECCENTRICITY":0.00018759,"INCLINATION":53.2211,"RA_OF_ASC_NODE":1.3804,"ARG_OF_PERICENTER":91.5099,"MEAN_ANOMALY":268.6108,"EPHEMERIS_TYPE":0,"CLASSIFICATION_TYPE":"U","NORAD_CAT_ID":51882,"ELEMENT_SET_NO":999,"REV_AT_EPOCH":22322,"BSTAR":1.7344565e-5,"MEAN_MOTION_DOT":-1.2e-7,"MEAN_MOTION_DDOT":0},{"OBJECT_NAME":"LEMUR-2-SIERRINI","OBJECT_ID":"2024-149DR","EPOCH":"2026-03-09T19:24:50.445216","MEAN_MOTION":15.08682764,"ECCENTRICITY":0.00065795,"INCLINATION":97.6873,"RA_OF_ASC_NODE":151.1225,"ARG_OF_PERICENTER":147.8458,"MEAN_ANOMALY":212.3173,"EPHEMERIS_TYPE":0,"CLASSIFICATION_TYPE":"U","NORAD_CAT_ID":60579,"ELEMENT_SET_NO":999,"REV_AT_EPOCH":8546,"BSTAR":0.00092040134,"MEAN_MOTION_DOT":0.00014386,"MEAN_MOTION_DDOT":0}]
